NORAD_CAT_ID,OBJECT_NAME,OBJECT_TYPE,EPOCH,MEAN_MOTION,ECCENTRICITY,INCLINATION,RA_OF_ASC_NODE,ARG_OF_PERICENTER,MEAN_ANOMALY,BSTAR,MEAN_MOTION_DOT,MEAN_MOTION_DDOT,TLE_LINE0,TLE_LINE1,TLE_LINE2,SEMIMAJOR_AXIS,PERIOD,APOGEE,PERIGEE,DECAYED
55746.0,STARLINK-5579,PAYLOAD,2023-12-16 13:39:46,14.98328312,0.0002695,69.9996,137.1092,262.8968,97.1885,7.3924e-06,-5e-08,0.0,0 STARLINK-5579,1 55746U 23028F   23350.56928435 -.00000005  00000-0  73924-5 0  9993,2 55746  69.9996 137.1092 0002695 262.8968  97.1885 14.98328312 44099,6950.198,96.107,573.936,570.19,0.0
55746.0,STARLINK-5579,PAYLOAD,2023-12-16 20:04:18,14.98327847,0.0002723,69.9997,136.4362,264.3401,95.7448,3.2695e-07,-8.9e-07,0.0,0 STARLINK-5579,1 55746U 23028F   23350.83632531 -.00000089  00000-0  32695-6 0  9995,2 55746  69.9997 136.4362 0002723 264.3401  95.7448 14.98327847 44139,6950.2,96.107,573.957,570.172,0.0
55746.0,STARLINK-5579,PAYLOAD,2023-12-17 13:41:46,14.98333217,0.0002848,69.9996,134.5845,268.3188,91.7645,4.2511e-05,4.14e-06,0.0,0 STARLINK-5579,1 55746U 23028F   23351.57068044  .00000414  00000-0  42511-4 0  9996,2 55746  69.9996 134.5845 0002848 268.3188  91.7645 14.98333217 44242,6950.183,96.107,574.027,570.069,0.0
55746.0,STARLINK-5579,PAYLOAD,2023-12-17 20:06:18,14.9833666,0.0002789,69.9998,133.9118,265.5885,94.4955,7.92e-05,8.52e-06,0.0,0 STARLINK-5579,1 55746U 23028F   23351.83771637  .00000852  00000-0  79200-4 0  9995,2 55746  69.9998 133.9118 0002789 265.5885  94.4955 14.98336660 44280,6950.172,96.107,573.976,570.099,0.0
55746.0,STARLINK-5579,PAYLOAD,2023-12-18 13:43:47,14.98332966,0.0002746,70.0001,132.0607,260.0825,100.0025,5.4762e-05,5.61e-06,0.0,0 STARLINK-5579,1 55746U 23028F   23352.57207680  .00000561  00000-0  54762-4 0  9992,2 55746  70.0001 132.0607 0002746 260.0825 100.0025 14.98332966 44397,6950.184,96.107,573.957,570.14,0.0
55746.0,STARLINK-5579,PAYLOAD,2023-12-18 18:32:11,14.98333673,0.0002733,70.0001,131.5558,260.5856,99.4994,5.9054e-05,6.12e-06,0.0,0 STARLINK-5579,1 55746U 23028F   23352.77235575  .00000612  00000-0  59054-4 0  9994,2 55746  70.0001 131.5558 0002733 260.5856  99.4994 14.98333673 44427,6950.182,96.107,573.946,570.147,0.0
55746.0,STARLINK-5579,PAYLOAD,2023-12-19 12:09:41,14.98325909,0.0002543,70.0006,129.705,254.1227,105.9652,-0.00010101,-1.298e-05,0.0,0 STARLINK-5579,1 55746U 23028F   23353.50672496 -.00001298  00000-0 -10101-3 0  9995,2 55746  70.0006 129.7050 0002543 254.1227 105.9652 14.98325909 44537,6950.206,96.107,573.838,570.303,0.0
55746.0,STARLINK-5579,PAYLOAD,2023-12-19 13:45:49,14.98325655,0.0002548,70.0006,129.5367,253.9687,106.1192,-0.0001021,-1.311e-05,0.0,0 STARLINK-5579,1 55746U 23028F   23353.57348526 -.00001311  00000-0 -10210-3 0  9993,2 55746  70.0006 129.5367 0002548 253.9687 106.1192 14.98325655 44549,6950.206,96.107,573.842,570.3,0.0
55746.0,STARLINK-5579,PAYLOAD,2023-12-20 12:11:41,14.98331983,0.0002747,70.0,127.1792,262.3028,97.782,-1.5228e-05,-2.75e-06,0.0,0 STARLINK-5579,1 55746U 23028F   23354.50812013 -.00000275  00000-0 -15228-4 0  9997,2 55746  70.0000 127.1792 0002747 262.3028  97.7820 14.98331983 44682,6950.187,96.107,573.961,570.143,0.0
55746.0,STARLINK-5579,PAYLOAD,2023-12-20 13:47:49,14.98331419,0.000318,69.9992,127.01,272.0707,88.0088,-3.2666e-05,-4.83e-06,0.0,0 STARLINK-5579,1 55746U 23028F   23354.57488127 -.00000483  00000-0 -32666-4 0  9995,2 55746  69.9992 127.0100 0003180 272.0707  88.0088 14.98331419 44699,6950.189,96.107,574.264,569.843,0.0
55746.0,STARLINK-5579,PAYLOAD,2023-12-20 18:36:13,14.98335051,0.0002677,70.0002,126.5062,260.2502,99.8355,2.7347e-05,2.33e-06,0.0,0 STARLINK-5579,1 55746U 23028F   23354.77515655  .00000233  00000-0  27347-4 0  9995,2 55746  70.0002 126.5062 0002677 260.2502  99.8355 14.98335051 44724,6950.177,96.107,573.903,570.182,0.0
55746.0,STARLINK-5579,PAYLOAD,2023-12-21 12:13:42,14.98323979,0.0002662,70.0003,124.655,259.0321,101.0539,8.819e-05,9.59e-06,0.0,0 STARLINK-5579,1 55746U 23028F   23355.50952209  .00000959  00000-0  88190-4 0  9995,2 55746  70.0003 124.6550 0002662 259.0321 101.0539 14.98323979 44833,6950.212,96.107,573.927,570.226,0.0
55746.0,STARLINK-5579,PAYLOAD,2023-12-21 13:49:50,14.98323829,0.0002593,70.0004,124.4865,258.1021,101.9847,9.1414e-05,9.98e-06,0.0,0 STARLINK-5579,1 55746U 23028F   23355.57628239  .00000998  00000-0  91414-4 0  9991,2 55746  70.0004 124.4865 0002593 258.1021 101.9847 14.98323829 44847,6950.212,96.107,573.879,570.275,0.0
55746.0,STARLINK-5579,PAYLOAD,2023-12-21 15:25:58,14.98323981,0.0002528,70.0006,124.3184,256.2491,103.8387,9.7504e-05,1.07e-05,0.0,0 STARLINK-5579,1 55746U 23028F   23355.64304227  .00001070  00000-0  97504-4 0  9995,2 55746  70.0006 124.3184 0002528 256.2491 103.8387 14.98323981 44850,6950.212,96.107,573.834,570.319,0.0
55746.0,STARLINK-5579,PAYLOAD,2023-12-22 12:15:43,14.9833491,0.0002654,70.0008,122.1314,251.0092,109.078,6.6793e-06,-1.3e-07,0.0,0 STARLINK-5579,1 55746U 23028F   23356.51091684 -.00000013  00000-0  66793-5 0  9996,2 55746  70.0008 122.1314 0002654 251.0092 109.0780 14.98334910 44986,6950.178,96.107,573.887,570.198,0.0
55746.0,STARLINK-5579,PAYLOAD,2023-12-22 13:51:51,14.98340467,0.0002549,70.0009,121.9629,244.5076,115.582,-8.9022e-05,-1.155e-05,0.0,0 STARLINK-5579,1 55746U 23028F   23356.57767613 -.00001155  00000-0 -89022-4 0  9992,2 55746  70.0009 121.9629 0002549 244.5076 115.5820 14.98340467 44997,6950.161,96.106,573.797,570.254,0.0
55746.0,STARLINK-5579,PAYLOAD,2023-12-22 18:40:15,14.9833524,0.0002634,70.0008,121.4576,258.0427,102.0437,9.7662e-06,2.4e-07,0.0,0 STARLINK-5579,1 55746U 23028F   23356.77795625  .00000024  00000-0  97662-5 0  9990,2 55746  70.0008 121.4576 0002634 258.0427 102.0437 14.98335240 45020,6950.177,96.107,573.872,570.211,0.0
55746.0,STARLINK-5579,PAYLOAD,2023-12-23 12:17:44,14.98325891,0.0002388,70.0013,119.6055,243.8387,116.2527,3.0744e-07,-8.9e-07,0.0,0 STARLINK-5579,1 55746U 23028F   23357.51232123 -.00000089  00000-0  30744-6 0  9993,2 55746  70.0013 119.6055 0002388 243.8387 116.2527 14.98325891 45130,6950.206,96.107,573.73,570.411,0.0
55746.0,STARLINK-5579,PAYLOAD,2023-12-23 13:53:52,14.98325279,0.0002502,70.0012,119.4373,243.0513,117.0391,-1.2279e-05,-2.39e-06,0.0,0 STARLINK-5579,1 55746U 23028F   23357.57908227 -.00000239  00000-0 -12279-4 0  9993,2 55746  70.0012 119.4373 0002502 243.0513 117.0391 14.98325279 45140,6950.207,96.107,573.811,570.334,0.0
55746.0,STARLINK-5579,PAYLOAD,2023-12-23 18:42:16,14.98329646,0.0002582,70.0005,118.9317,249.6059,110.4823,2.1332e-05,1.62e-06,0.0,0 STARLINK-5579,1 55746U 23028F   23357.77935887  .00000162  00000-0  21332-4 0  9990,2 55746  70.0005 118.9317 0002582 249.6059 110.4823 14.98329646 45171,6950.194,96.107,573.854,570.264,0.0
55746.0,STARLINK-5579,PAYLOAD,2023-12-24 12:19:45,14.98331138,0.0002845,70.0005,117.0805,262.2754,97.8082,-2.4304e-06,-1.22e-06,0.0,0 STARLINK-5579,1 55746U 23028F   23358.51371757 -.00000122  00000-0 -24304-5 0  9994,2 55746  70.0005 117.0805 0002845 262.2754  97.8082 14.98331138 45284,6950.189,96.107,574.032,570.077,0.0
55746.0,STARLINK-5579,PAYLOAD,2023-12-24 13:55:53,14.98332333,0.0002609,70.0006,116.9122,253.2237,106.8636,-1.0391e-05,-2.17e-06,0.0,0 STARLINK-5579,1 55746U 23028F   23358.58047679 -.00000217  00000-0 -10391-4 0  9999,2 55746  70.0006 116.9122 0002609 253.2237 106.8636 14.98332333 45294,6950.186,96.107,573.864,570.237,0.0
55746.0,STARLINK-5579,PAYLOAD,2023-12-24 17:08:09,14.98334189,0.0002725,70.0007,116.5756,257.8267,102.2587,3.5998e-05,3.37e-06,0.0,0 STARLINK-5579,1 55746U 23028F   23358.71399402  .00000337  00000-0  35998-4 0  9999,2 55746  70.0007 116.5756 0002725 257.8267 102.2587 14.98334189 45315,6950.18,96.107,573.939,570.151,0.0
55746.0,STARLINK-5579,PAYLOAD,2023-12-25 12:21:45,14.98328843,0.0002718,70.0008,114.5562,258.465,101.6204,6.009e-05,6.24e-06,0.0,0 STARLINK-5579,1 55746U 23028F   23359.51511572  .00000624  00000-0  60090-4 0  9992,2 55746  70.0008 114.5562 0002718 258.4650 101.6204 14.98328843 45436,6950.196,96.107,573.951,570.172,0.0
55746.0,STARLINK-5579,PAYLOAD,2023-12-25 13:57:54,14.98329425,0.0002654,70.0009,114.3877,256.0449,104.0415,5.3216e-05,5.42e-06,0.0,0 STARLINK-5579,1 55746U 23028F   23359.58187551  .00000542  00000-0  53216-4 0  9996,2 55746  70.0009 114.3877 0002654 256.0449 104.0415 14.98329425 45442,6950.195,96.107,573.904,570.215,0.0
55746.0,STARLINK-5579,PAYLOAD,2023-12-25 18:46:20,14.98304166,0.0002669,70.0006,113.8824,257.0143,103.0718,-0.00024137,-2.97e-05,0.0,0 STARLINK-5579,1 55746U 23028F   23359.78218070 -.00002970  00000-0 -24137-3 0  9997,2 55746  70.0006 113.8824 0002669 257.0143 103.0718 14.98304166 45476,6950.273,96.109,573.993,570.283,0.0
55746.0,STARLINK-5579,PAYLOAD,2023-12-26 10:47:40,14.98318721,0.0002882,69.9993,112.1967,272.3212,87.7617,-0.00012455,-1.578e-05,0.0,0 STARLINK-5579,1 55746U 23028F   23360.44977515 -.00001578  00000-0 -12455-3 0  9991,2 55746  69.9993 112.1967 0002882 272.3212  87.7617 14.98318721 45571,6950.228,96.108,574.096,570.09,0.0
55746.0,STARLINK-5579,PAYLOAD,2023-12-26 13:59:56,14.98317221,0.0002399,70.0013,111.8636,256.0588,104.0304,-9.4201e-05,-1.216e-05,0.0,0 STARLINK-5579,1 55746U 23028F   23360.58329595 -.00001216  00000-0 -94201-4 0  9994,2 55746  70.0013 111.8636 0002399 256.0588 104.0304 14.98317221 45596,6950.232,96.108,573.765,570.43,0.0
55746.0,STARLINK-5579,PAYLOAD,2023-12-26 17:12:12,14.98318186,0.0002354,70.0015,111.5268,250.5087,109.5818,-7.583e-05,-9.97e-06,0.0,0 STARLINK-5579,1 55746U 23028F   23360.71681570 -.00000997  00000-0 -75830-4 0  9995,2 55746  70.0015 111.5268 0002354 250.5087 109.5818 14.98318186 45614,6950.229,96.108,573.731,570.458,0.0
55746.0,STARLINK-5579,PAYLOAD,2023-12-27 10:49:40,14.98332413,0.0003019,69.999,109.6705,280.8967,79.1852,0.00016785,1.91e-05,0.0,0 STARLINK-5579,1 55746U 23028F   23361.45115957  .00001910  00000-0  16785-3 0  9995,2 55746  69.9990 109.6705 0003019 280.8967  79.1852 14.98332413 45720,6950.185,96.107,574.149,569.952,0.0
